BEESAT-4                
1 41619U 16040W   21235.42306208  .00002234  00000-0  89861-4 0  9997
2 41619  97.2642 289.6319 0012398  94.9852 265.2802 15.25851203275226
CAS-2T & KS-1Q          
1 41847U 16066G   21235.54207094  .00000093  00000-0  24129-4 0  9991
2 41847  98.5961 294.9281 0365502  20.3042 341.2257 14.38227031251521
NAYIF-1 (EO-88)         
1 42017U 17008BX  21235.47250436  .00002451  00000-0  90906-4 0  9994
2 42017  97.3115 301.8721 0004814 215.9768 144.1148 15.28546716251498
ZHUHAI-1 02 (CAS-4B)    
1 42759U 17034B   21235.57061627  .00000508  00000-0  43730-4 0  9993
2 42759  43.0165 172.0661 0008781 233.3173 295.8810 15.10316874231293
ZHUHAI-1 01 (CAS-4A)    
1 42761U 17034D   21235.28586262  .00000493  00000-0  42761-4 0  9997
2 42761  43.0175 172.6372 0009339 232.3614 257.0597 15.10404126231257
MAX VALIER SAT          
1 42778U 17036P   21235.55068852  .00001371  00000-0  59677-4 0  9997
2 42778  97.2500 281.9507 0010144 304.4904  55.5375 15.23832895231506
RADFXSAT (FOX-1B)       
1 43017U 17073E   21235.48778682  .00000956  00000-0  77760-4 0  9997
2 43017  97.6992 136.7995 0256116  81.6767 281.3396 14.79653496203039
FOX-1D (AO-92)          
1 43137U 18004AC  21235.44082212  .00001574  00000-0  64959-4 0  9991
2 43137  97.4031 308.7853 0008096 346.2451  13.8566 15.25502558200870
DIWATA-2B               
1 43678U 18084H   21235.46233130  .00000496  00000-0  54916-4 0  9992
2 43678  97.9317   1.1182 0009842 180.7339 179.3845 14.91780915153420
ES'HAIL 2               
1 43700U 18090A   21235.42271785  .00000123  00000-0  00000-0 0  9997
2 43700   0.0176 110.0963 0002372  75.8248 324.0027  1.00275232 10043
FOX-1CLIFF (AO-95)      
1 43770U 18099N   21235.43183018  .00000079  00000-0  12314-4 0  9990
2 43770  97.6610 304.1279 0014223 187.7805 172.3198 14.95394771148460
ITASAT 1                
1 43786U 18099AE  21235.47193188  .00000799  00000-0  76853-4 0  9997
2 43786  97.6629 304.8918 0015214 180.6462 179.4742 14.95677510148509
JY1SAT (JO-97)          
1 43803U 18099AX  21235.15685658  .00000519  00000-0  51381-4 0  9999
2 43803  97.6594 304.3283 0014976 181.1949 178.9239 14.95941270148467
UWE-4                   
1 43880U 18111E   21235.56354887  .00000962  00000-0  88693-4 0  9999
2 43880  97.6811 142.1368 0010543 234.7645 125.2591 14.96949548145123
NEXUS (FO-99)           
1 43937U 19003F   21235.40765956  .00002021  00000-0  80567-4 0  9999
2 43937  97.1714 275.9000 0024444 132.1451 228.1870 15.26039348144474
PSAT2 (NO-104)          
1 44354U 19036R   21235.51065393  .00008092  00000-0  10075-3 0  9999
2 44354  28.5306  39.1919 0316691 284.3942  72.1704 15.15778520119155
BRICSAT2 (NO-103)       
1 44355U 19036S   21235.48816218  .00022404 -58785-5  21182-3 0  9999
2 44355  28.5263 342.3974 0246076  17.0575 343.8127 15.34411352119717
JAISAT-1                
1 44419U 19038F   21235.52934885  .00001416  00000-0  81370-4 0  9995
2 44419  97.5939 200.0111 0022727  81.6089 278.7718 15.13953839117942
DUCHIFAT-3              
1 44854U 19089C   21235.51335021  .00000462  00000-0  43244-4 0  9998
2 44854  36.9661  64.0295 0009688 320.3862  39.6157 14.99581154 93177
CAS-6 (TO-108)          
1 44881U 19093C   21235.53647685  .00000038  00000-0  11609-4 0  9996
2 44881  97.9217 313.6272 0016456  76.1370 284.1679 14.81472438 90662
RS-44 & BREEZE-KM R/B   
1 44909U 19096E   21235.55076158 -.00000005  00000-0 -58262-4 0  9995
2 44909  82.5177  68.2232 0216506 296.3816  61.5203 12.79710678 77409
ORBITAL FACTORY 2 (OF-2)
1 45113U 19071C   21234.96289432  .00004436  00000-0  13416-3 0  9992
2 45113  51.6419  74.9156 0011960 171.3209 188.7983 15.36257124 87391
HUSKYSAT-1 (HO-107)     
1 45119U 19071J   21235.55937608  .00003688  00000-0  11343-3 0  9994
2 45119  51.6412  71.3913 0011411 169.8710 190.2505 15.36248944 87480
BY70-2                  
1 45857U 20042B   21235.43689462  .00001104  00000-0  16310-3 0  9992
2 45857  97.9821 310.4896 0010678   7.7062 352.4310 14.77206342 61430
SALSAT                  
1 46495U 20068K   21235.61338158  .00000102  00000-0  12037-4 0  9992
2 46495  97.6966 172.7224 0016054 198.6296 161.4345 15.03523936 49425
BY70-3                  
1 46839U 20079N   21235.50278046  .00003317  00000-0  10268-3 0  9997
2 46839  97.2372 308.0343 0006067 337.9691  78.3444 15.34144644 44486
RADFXSAT-2 (AO-109)     
1 47311U 21002C   21235.44200617  .00001227  00000-0  64438-4 0  9999
2 47311  60.6865  40.3878 0041976  82.7636 277.8219 15.21882940 33066
UVSQ-SAT                
1 47438U 21006AB  21235.43359360  .00001002  00000-0  59901-4 0  9992
2 47438  97.4823 295.4461 0011631 221.1455 138.8900 15.13287778 32186
DIY-1 (ARDUIQUBE)       
1 47963U 21022AH  21235.53927968  .00002867  00000-0  19182-3 0  9995
2 47963  97.5516 136.6777 0021341  76.0351 284.3248 15.07555118 22007
